stk.v.4.3

BEGIN Ephemeris

NumberOfEphemerisPoints   1004

ScenarioEpoch           27 Apr 2018 23:11:30.836896
InterpolationMethod     Lagrange
InterpolationOrder      7
CentralBody             Earth
CoordinateSystem        Custom Topo Facility/Algonquin
DistanceUnit     Kilometers

EphemerisTimePosVel

59400.0 2234.17102984 -26219.6888682 -10545.7572728 2.57738768716 0.109240637764 0.795429868351 
59460.0 2400.16529114 -26211.9700788 -10495.6897831 2.57098159392 0.123134642901 0.820272584852 
59520.0 2565.73993652 -26203.3478675 -10444.1095037 2.5643533473 0.137053954015 0.845016254433 
59580.0 2730.88079169 -26193.8210169 -10391.0229161 2.55750411339 0.150998732833 0.869657658221 
59640.0 2895.57376162 -26183.3883111 -10336.4367046 2.55043509198 0.164969132817 0.89419359163 
59700.0 3059.80483275 -26172.0485363 -10280.3577549 2.54314751635 0.178965298973 0.918620864792 
59760.0 3223.56007514 -26159.8004813 -10222.7931531 2.53564265302 0.192987367664 0.942936302987 
59820.0 3386.82564475 -26146.6429378 -10163.7501847 2.52792180153 0.207035466429 0.967136747064 
59880.0 3549.5877855 -26132.574701 -10103.2363333 2.51998629421 0.221109713797 0.991219053869 
59940.0 3711.83283152 -26117.5945702 -10041.2592795 2.51183749597 0.235210219109 1.01518009666 
60000.0 3873.54720921 -26101.7013491 -9977.82689992 2.50347680401 0.249337082339 1.03901676554 
60000.0 3873.54720921 -26101.7013491 -9977.82689992 2.50347680401 0.249337082339 1.03901676554 
